[{"OBJECT_NAME":"STARLINK-33785","OBJECT_ID":"2025-071Z","EPOCH":"2026-03-09T11:26:15.011232","MEAN_MOTION":15.30190164,"ECCENTRICITY":0.00011574,"INCLINATION":53.1578,"RA_OF_ASC_NODE":141.1297,"ARG_OF_PERICENTER":97.0782,"MEAN_ANOMALY":263.0351,"EPHEMERIS_TYPE":0,"CLASSIFICATION_TYPE":"U","NORAD_CAT_ID":63516,"ELEMENT_SET_NO":999,"REV_AT_EPOCH":5271,"BSTAR":0.00048480911,"MEAN_MOTION_DOT":0.00014022,"MEAN_MOTION_DDOT":0},{"OBJECT_NAME":"ATLAS F DEB","OBJECT_ID":"1978-047C","EPOCH":"2026-03-09T21:11:22.529760","MEAN_MOTION":12.47735571,"ECCENTRICITY":0.12806369,"INCLINATION":63.6672,"RA_OF_ASC_NODE":306.5337,"ARG_OF_PERICENTER":6.5078,"MEAN_ANOMALY":63.9186,"EPHEMERIS_TYPE":0,"CLASSIFICATION_TYPE":"U","NORAD_CAT_ID":29197,"ELEMENT_SET_NO":999,"REV_AT_EPOCH":74601,"BSTAR":0.094503922,"MEAN_MOTION_DOT":0.00406138,"MEAN_MOTION_DDOT":0}]
